{
  "type": "FeatureCollection",
  "features": [
    {
      "type": "Feature",
      "properties": {
        "norad_id": 64903,
        "name": "CO3D 1",
        "group": "resource",
        "lat": -75.7557128143557,
        "lon": 108.48220008224276,
        "alt_km": 513.0574541440255,
        "timestamp": "2025-12-27T11:23:19.535486+00:00",
        "meta_object_name": "CO3D 1",
        "meta_object_id": "2025-156E",
        "meta_epoch": "2025-12-27T03:49:55.002432",
        "meta_mean_motion": 15.20198838,
        "meta_eccentricity": 9.07e-05,
        "meta_inclination": 97.4339,
        "meta_ra_of_asc_node": 77.2188,
        "meta_arg_of_pericenter": 66.4605,
        "meta_mean_anomaly": 293.6725,
        "meta_ephemeris_type": 0,
        "meta_classification_type": "U",
        "meta_norad_cat_id": 64903,
        "meta_element_set_no": 999,
        "meta_rev_at_epoch": 2339,
        "meta_bstar": 0.00066647,
        "meta_mean_motion_dot": 0.00014386,
        "meta_mean_motion_ddot": 0,
        "tle_line1": "1 64903U 25156E   25361.15966438  .00014386  00000+0  66647-3 0  9993",
        "tle_line2": "2 64903  97.4339  77.2188 0000907  66.4605 293.6725 15.20198838 23391"
      },
      "geometry": {
        "type": "Point",
        "coordinates": [
          108.48220008224276,
          -75.7557128143557
        ]
      }
    },
    {
      "type": "Feature",
      "properties": {
        "norad_id": 66514,
        "name": "SENTINEL-6B",
        "group": "resource",
        "lat": -1.7374129038422452,
        "lon": 131.05716213881988,
        "alt_km": 1339.6897990810367,
        "timestamp": "2025-12-27T11:23:19.535495+00:00",
        "meta_object_name": "SENTINEL-6B",
        "meta_object_id": "2025-264A",
        "meta_epoch": "2025-12-27T02:01:46.344288",
        "meta_mean_motion": 12.8092956,
        "meta_eccentricity": 0.0007921,
        "meta_inclination": 66.0402,
        "meta_ra_of_asc_node": 132.6397,
        "meta_arg_of_pericenter": 270.0089,
        "meta_mean_anomaly": 90.0018,
        "meta_ephemeris_type": 0,
        "meta_classification_type": "U",
        "meta_norad_cat_id": 66514,
        "meta_element_set_no": 999,
        "meta_rev_at_epoch": 512,
        "meta_bstar": 7.394e-05,
        "meta_mean_motion_dot": -4.4e-07,
        "meta_mean_motion_ddot": 0,
        "tle_line1": "1 66514U 25264A   25361.08456417 -.00000044  00000+0  73940-4 0  9998",
        "tle_line2": "2 66514  66.0402 132.6397 0007921 270.0089  90.0018 12.80929560  5126"
      },
      "geometry": {
        "type": "Point",
        "coordinates": [
          131.05716213881988,
          -1.7374129038422452
        ]
      }
    }
  ]
}